PROGRESS-MS 25          
1 58460U 23184A   24023.31169366  .00026828  00000+0  47976-3 0  9998
2 58460  51.6400 318.1850 0004788 121.4867 238.6590 15.49795640435929
BEAK                    
1 58612U 98067WD  24024.01029769  .00062362  00000+0  90609-3 0  9993
2 58612  51.6412 313.8563 0006126 122.9347 237.2234 15.55172259  5779
CLARK SAT-1 (AMBITIOUS) 
1 58613U 98067WE  24024.04762881  .00118585  00000+0  15327-2 0  9998
2 58613  51.6394 313.3557 0008778 145.0201 215.1370 15.58012935  5758
TIANZHOU-7              
1 58811U 24013A   24023.07462752  .00022756  00000+0  24982-3 0  9996
2 58811  41.4679 255.8051 0007990 222.4760 137.5462 15.62632106156226
CZ-7 R/B                
1 58812U 24013B   24023.92718270  .01715118  76503-5  58018-3 0  9996
2 58812  41.4662 247.7589 0067081 226.0504 266.6870 16.18622649  1025
2024-013C               
1 58813U 24013C   24018.11402078 -.00002294  72670-5  00000+0 0  9997
2 58813  41.8298 285.9373 0234014 181.6233 328.2070 15.73710950    93
2024-013D               
1 58814U 24013D   24018.11444661 -.00002240  70950-5  00000+0 0  9992
2 58814  41.6413 286.0086 0240306 187.1577 323.2676 15.72861586    84
2024-014A               
1 58815U 24014A   24023.31169366  .00026828  00000+0  47976-3 0  9995
2 58815  51.6400 318.1850 0004788 121.4867 238.6590 15.49795640435923
